[{"OBJECT_NAME":"SITRO-AIS 19","OBJECT_ID":"2024-199AA","EPOCH":"2026-03-09T22:55:52.374720","MEAN_MOTION":14.97361264,"ECCENTRICITY":0.00068965,"INCLINATION":97.3309,"RA_OF_ASC_NODE":274.6556,"ARG_OF_PERICENTER":52.1847,"MEAN_ANOMALY":307.9999,"EPHEMERIS_TYPE":0,"CLASSIFICATION_TYPE":"U","NORAD_CAT_ID":61759,"ELEMENT_SET_NO":999,"REV_AT_EPOCH":12028,"BSTAR":0.00032569983,"MEAN_MOTION_DOT":3.731e-5,"MEAN_MOTION_DDOT":0},{"OBJECT_NAME":"ESSAIM-3","OBJECT_ID":"2004-049E","EPOCH":"2026-03-09T17:57:07.382304","MEAN_MOTION":14.96054296,"ECCENTRICITY":0.00013371,"INCLINATION":98.2193,"RA_OF_ASC_NODE":0.6383,"ARG_OF_PERICENTER":147.2664,"MEAN_ANOMALY":212.8639,"EPHEMERIS_TYPE":0,"CLASSIFICATION_TYPE":"U","NORAD_CAT_ID":28496,"ELEMENT_SET_NO":999,"REV_AT_EPOCH":14785,"BSTAR":0.00036464987,"MEAN_MOTION_DOT":4.033e-5,"MEAN_MOTION_DDOT":0}]
